{
  "norad_id": 50499,
  "name": "ONEWEB-0427",
  "history": [
    {
      "epoch": "2026-03-28T18:30:15.872256Z",
      "apogee_km": 1190.9021523163383,
      "perigee_km": 1188.5788139290198,
      "latitude_deg": 3.524605794072671e-05,
      "longitude_deg": -112.34071807752521,
      "height_km": 1192.307970583693,
      "semi_major_axis_km": 7567.877483122679,
      "eccentricity": 0.0001535,
      "inclination_deg": 87.9246,
      "raan_deg": 351.4121,
      "arg_perigee_deg": 73.4887,
      "mean_anomaly_deg": 286.6414,
      "mean_motion_rev_day": 13.18686691
    },
    {
      "epoch": "2026-03-29T03:36:34.483968Z",
      "apogee_km": 1190.8977131677366,
      "perigee_km": 1188.5804295146927,
      "latitude_deg": 4.763470207424462e-05,
      "longitude_deg": 110.6325975149425,
      "height_km": 1192.3145046167697,
      "semi_major_axis_km": 7567.876071341215,
      "eccentricity": 0.0001531,
      "inclination_deg": 87.9246,
      "raan_deg": 351.3369,
      "arg_perigee_deg": 73.8537,
      "mean_anomaly_deg": 286.2764,
      "mean_motion_rev_day": 13.1868706
    },
    {
      "epoch": "2026-03-30T03:16:58.946304Z",
      "apogee_km": 1190.9013640462745,
      "perigee_km": 1188.578025900918,
      "latitude_deg": 5.729673222017536e-05,
      "longitude_deg": 114.3628375253622,
      "height_km": 1192.324984282053,
      "semi_major_axis_km": 7567.876694973596,
      "eccentricity": 0.0001535,
      "inclination_deg": 87.9247,
      "raan_deg": 351.1413,
      "arg_perigee_deg": 74.4029,
      "mean_anomaly_deg": 285.7273,
      "mean_motion_rev_day": 13.18686897
    },
    {
      "epoch": "2026-03-30T05:06:14.654304Z",
      "apogee_km": 1190.8950095356686,
      "perigee_km": 1188.5807533969164,
      "latitude_deg": -7.538365699452043e-05,
      "longitude_deg": 86.95759578486076,
      "height_km": 1192.3239868608396,
      "semi_major_axis_km": 7567.874881466292,
      "eccentricity": 0.0001529,
      "inclination_deg": 87.9247,
      "raan_deg": 351.1263,
      "arg_perigee_deg": 74.3805,
      "mean_anomaly_deg": 285.7495,
      "mean_motion_rev_day": 13.18687371
    },
    {
      "epoch": "2026-03-30T10:34:01.829280Z",
      "apogee_km": 1190.8884981888832,
      "perigee_km": 1188.5874101303225,
      "latitude_deg": 2.8170985664310154e-05,
      "longitude_deg": 4.741575665892586,
      "height_km": 1192.3241829776612,
      "semi_major_axis_km": 7567.874954159603,
      "eccentricity": 0.00015203,
      "inclination_deg": 87.9247,
      "raan_deg": 351.0812,
      "arg_perigee_deg": 74.2952,
      "mean_anomaly_deg": 285.8348,
      "mean_motion_rev_day": 13.18687352
    },
    {
      "epoch": "2026-03-30T23:18:51.984864Z",
      "apogee_km": 1190.8820999973304,
      "perigee_km": 1188.5993253640772,
      "latitude_deg": 3.9782838238482904e-05,
      "longitude_deg": 172.9039835087934,
      "height_km": 1192.3345913102119,
      "semi_major_axis_km": 7567.877712680704,
      "eccentricity": 0.00015082,
      "inclination_deg": 87.9249,
      "raan_deg": 350.9761,
      "arg_perigee_deg": 74.5638,
      "mean_anomaly_deg": 285.5661,
      "mean_motion_rev_day": 13.18686631
    }
  ]
}